IRIDIUM 155             
1 43573U 18061E   21145.45466161  .00000061  00000-0  14788-4 0  9993
2 43573  86.3946 109.3397 0001776  82.3114 277.8283 14.34216137148374
IRIDIUM 154             
1 43574U 18061F   21145.64493367  .00000067  00000-0  16967-4 0  9990
2 43574  86.3950 109.3057 0002504  83.5690 276.5791 14.34219295148452
IRIDIUM 163             
1 43575U 18061G   21145.62591271  .00000070  00000-0  17766-4 0  9994
2 43575  86.3948 109.2851 0002514  98.1374 262.0107 14.34216785148422
IRIDIUM 156             
1 43576U 18061H   21145.60054077  .00000063  00000-0  15547-4 0  9998
2 43576  86.3949 109.3009 0002082  94.2122 265.9311 14.34215984148405
IRIDIUM 164             
1 43577U 18061J   21145.44197610  .00000074  00000-0  19262-4 0  9992
2 43577  86.3949 109.3794 0002502  87.2959 272.8523 14.34217728148437
IRIDIUM 159             
1 43578U 18061K   21145.61957130  .00000066  00000-0  16456-4 0  9996
2 43578  86.3946 109.2807 0002441  85.2593 274.8881 14.34217311148429
IRIDIUM 180             
1 43922U 19002A   21145.47953510  .00000095  00000-0  26985-4 0  9997
2 43922  86.4002  46.1736 0003186  86.5133 273.6427 14.34218232124012
IRIDIUM 176             
1 43923U 19002B   21145.43737112  .00000207  00000-0  28932-4 0  9991
2 43923  86.6135  46.2234 0002526  84.1140 276.0365 14.72250275127246
IRIDIUM 168             
1 43924U 19002C   21145.47318781  .00000098  00000-0  28096-4 0  9992
2 43924  86.4004  46.2012 0002456  82.1580 277.9895 14.34219403123994
IRIDIUM 173             
1 43925U 19002D   21145.46049910  .00000097  00000-0  27700-4 0  9997
2 43925  86.4000  46.1707 0002390  84.2976 275.8492 14.34218015123976
IRIDIUM 169             
1 43926U 19002E   21145.52944938  .00000076  00000-0  18430-4 0  9996
2 43926  86.4233  77.7411 0003686 332.7267  27.3737 14.38606305124442
IRIDIUM 172             
1 43927U 19002F   21145.66345908  .00000097  00000-0  27628-4 0  9996
2 43927  86.4000  46.0881 0002489  84.1361 276.0119 14.34219905124010
IRIDIUM 175             
1 43928U 19002G   21145.43119567  .00000203  00000-0  28254-4 0  9997
2 43928  86.6119  46.0505 0002598  99.6573 260.4937 14.72251238127233
IRIDIUM 171             
1 43929U 19002H   21145.64443913  .00000098  00000-0  27883-4 0  9995
2 43929  86.4010  46.1970 0002427  81.5700 278.5771 14.34218455124002
IRIDIUM 170             
1 43930U 19002J   21145.44353032  .00000211  00000-0  29521-4 0  9995
2 43930  86.6135  46.2272 0002671  87.4399 272.7124 14.72247866127258
IRIDIUM 167             
1 43931U 19002K   21145.21950575  .00000097  00000-0  27706-4 0  9991
2 43931  86.4001  46.2797 0002955  84.5885 275.5648 14.34217741123945
